1 41788U 16059F   19219.20080378  .00004599  00000-0  69683-3 0  9991
2 41788  98.2414 295.3950 0027599 208.1768 151.7974 14.74406613153307
1 41788U 16059F   19219.40439768  .00004618  00000-0  69966-3 0  9990
2 41788  98.2413 295.6019 0027607 207.4956 152.4808 14.74408708153330
1 41788U 16059F   19219.67585477  .00004876  00000-0  73829-3 0  9997
2 41788  98.2418 295.8792 0027362 206.6982 153.2825 14.74413316153376
1 41788U 16059F   19219.81158366  .00004888  00000-0  74005-3 0  9996
2 41788  98.2418 296.0171 0027346 206.3421 153.6398 14.74414726153394
1 41788U 16059F   19220.08304128  .00004910  00000-0  74325-3 0  9997
2 41788  98.2415 296.2933 0027393 205.4778 154.5099 14.74417604153437
1 41788U 16059F   19220.35449737  .00004963  00000-0  75108-3 0  9991
2 41788  98.2416 296.5695 0027567 204.6531 155.3376 14.74420778153474
1 41788U 16059F   19220.76168257  .00004933  00000-0  74655-3 0  9994
2 41788  98.2417 296.9836 0027523 203.5136 156.4813 14.74424414153533
1 41788U 16059F   19221.16886614  .00004978  00000-0  75309-3 0  9999
2 41788  98.2426 297.3976 0027909 201.9427 158.0613 14.74428685153592
1 41788U 16059F   19221.44032062  .00004943  00000-0  74775-3 0  9998
2 41788  98.2425 297.6739 0028004 201.2259 158.7748 14.74430927153637
1 41788U 16059F   19221.77964003  .00004884  00000-0  73880-3 0  9993
2 41788  98.2422 298.0187 0028085 200.1347 159.8757 14.74433833153687
1 41788U 16059F   19222.18682140  .00004827  00000-0  73025-3 0  9996
2 41788  98.2422 298.4327 0028160 198.6286 161.3868 14.74437263153743
1 41788U 16059F   19222.45827573  .00004688  00000-0  70939-3 0  9993
2 41788  98.2425 298.7094 0028274 197.8387 162.1772 14.74438571153789
1 41788U 16059F   19222.79759388  .00004636  00000-0  70165-3 0  9992
2 41788  98.2423 299.0543 0028315 196.7911 163.2362 14.74441308153832
1 41788U 16059F   19223.20477454  .00004528  00000-0  68546-3 0  9990
2 41788  98.2420 299.4683 0028196 195.4084 164.6235 14.74443946153892
1 41788U 16059F   19223.47622767  .00004324  00000-0  65494-3 0  9991
2 41788  98.2422 299.7451 0028113 195.1942 164.8279 14.74444274153939
1 41788U 16059F   19223.81554586  .00004272  00000-0  64704-3 0  9997
2 41788  98.2423 300.0907 0028215 194.0370 166.0040 14.74446728153989
1 41788U 16059F   19224.15486360  .00004159  00000-0  63019-3 0  9991
2 41788  98.2420 300.4355 0028326 192.7250 167.3253 14.74448247154037
1 41788U 16059F   19224.42631507  .00004074  00000-0  61745-3 0  9996
2 41788  98.2416 300.7113 0028286 192.1060 167.9396 14.74449575154078
1 41788U 16059F   19224.96921881  .00003968  00000-0  60147-3 0  9998
2 41788  98.2418 301.2638 0028439 190.3869 169.6722 14.74453121154158
1 41788U 16059F   19225.10494482  .00003957  00000-0  59979-3 0  9996
2 41788  98.2419 301.4017 0028459 189.9256 170.1383 14.74454089154174
1 41788U 16059F   19225.44425798  .00003832  00000-0  58116-3 0  9991
2 41788  98.2421 301.7466 0028474 189.1459 170.9152 14.74455569154224
1 41788U 16059F   19226.12288483  .00003753  00000-0  56923-3 0  9991
2 41788  98.2422 302.4369 0028620 187.1520 172.9292 14.74460188154326
1 41788U 16059F   19226.46219610  .00003715  00000-0  56357-3 0  9993
2 41788  98.2423 302.7820 0028670 186.1449 173.9401 14.74462526154372
1 41788U 16059F   19226.80150751  .00003664  00000-0  55586-3 0  9997
2 41788  98.2425 303.1272 0028844 185.0813 175.0104 14.74464663154429
1 41788U 16059F   19227.14081691  .00003707  00000-0  56208-3 0  9991
2 41788  98.2423 303.4724 0029178 183.8169 176.2842 14.74467824154472
1 41788U 16059F   19227.20867855  .00003704  00000-0  56174-3 0  9991
2 41788  98.2423 303.5414 0029194 183.6042 176.4963 14.74468328154482
1 41788U 16059F   19227.68371220  .00003680  00000-0  55798-3 0  9993
2 41788  98.2421 304.0244 0029300 182.1035 178.0054 14.74471697154552
